[
  {
    "OBJECT_NAME": "STARLINK-34090",
    "OBJECT_ID": "25099AA",
    "EPOCH": "2025-11-10T20:53:48.488640",
    "MEAN_MOTION": 15.27630418,
    "ECCENTRICITY": 0.0002059,
    "INCLINATION": 43.0032,
    "RA_OF_ASC_NODE": 123.8458,
    "ARG_OF_PERICENTER": 292.5374,
    "MEAN_ANOMALY": 67.526,
    "EPHEMERIS_TYPE": 0,
    "CLASSIFICATION_TYPE": "U",
    "NORAD_CAT_ID": 63976,
    "ELEMENT_SET_NO": 999,
    "REV_AT_EPOCH": 2911,
    "BSTAR": 0.0011161,
    "MEAN_MOTION_DOT": 0.00030625,
    "MEAN_MOTION_DDOT": 0.0,
    "TLE_LINE1": "1 63976U 25099AA  25314.87070010  .00030625  00000+0  11161-2 0  9991",
    "TLE_LINE2": "2 63976  43.0032 123.8458 0002059 292.5374  67.5260 15.27630418 29110",
    "COMMENT": "Grouped by shell and plane from TLE"
  },
  {
    "OBJECT_NAME": "STARLINK-34105",
    "OBJECT_ID": "25099AB",
    "EPOCH": "2025-11-11T04:40:54.640704",
    "MEAN_MOTION": 15.27592957,
    "ECCENTRICITY": 7.2e-05,
    "INCLINATION": 43.0035,
    "RA_OF_ASC_NODE": 121.9782,
    "ARG_OF_PERICENTER": 305.1819,
    "MEAN_ANOMALY": 54.8965,
    "EPHEMERIS_TYPE": 0,
    "CLASSIFICATION_TYPE": "U",
    "NORAD_CAT_ID": 63977,
    "ELEMENT_SET_NO": 999,
    "REV_AT_EPOCH": 2916,
    "BSTAR": 0.001286,
    "MEAN_MOTION_DOT": 0.00035309,
    "MEAN_MOTION_DDOT": 0.0,
    "TLE_LINE1": "1 63977U 25099AB  25315.19507686  .00035309  00000+0  12860-2 0  9993",
    "TLE_LINE2": "2 63977  43.0035 121.9782 0000720 305.1819  54.8965 15.27592957 29162",
    "COMMENT": "Grouped by shell and plane from TLE"
  },
  {
    "OBJECT_NAME": "STARLINK-33642",
    "OBJECT_ID": "25099AC",
    "EPOCH": "2025-11-11T04:29:48.515712",
    "MEAN_MOTION": 15.27603612,
    "ECCENTRICITY": 6.09e-05,
    "INCLINATION": 43.0025,
    "RA_OF_ASC_NODE": 121.9244,
    "ARG_OF_PERICENTER": 321.311,
    "MEAN_ANOMALY": 38.7698,
    "EPHEMERIS_TYPE": 0,
    "CLASSIFICATION_TYPE": "U",
    "NORAD_CAT_ID": 63978,
    "ELEMENT_SET_NO": 999,
    "REV_AT_EPOCH": 2916,
    "BSTAR": 0.0010482,
    "MEAN_MOTION_DOT": 0.00028715,
    "MEAN_MOTION_DDOT": 0.0,
    "TLE_LINE1": "1 63978U 25099AC  25315.18736708  .00028715  00000+0  10482-2 0  9993",
    "TLE_LINE2": "2 63978  43.0025 121.9244 0000609 321.3110  38.7698 15.27603612 29160",
    "COMMENT": "Grouped by shell and plane from TLE"
  },
  {
    "OBJECT_NAME": "STARLINK-34045",
    "OBJECT_ID": "25099AD",
    "EPOCH": "2025-11-11T04:24:15.983712",
    "MEAN_MOTION": 15.27587549,
    "ECCENTRICITY": 0.0001716,
    "INCLINATION": 42.9937,
    "RA_OF_ASC_NODE": 121.8958,
    "ARG_OF_PERICENTER": 70.9961,
    "MEAN_ANOMALY": 289.1077,
    "EPHEMERIS_TYPE": 0,
    "CLASSIFICATION_TYPE": "U",
    "NORAD_CAT_ID": 63979,
    "ELEMENT_SET_NO": 999,
    "REV_AT_EPOCH": 2916,
    "BSTAR": 0.0012553,
    "MEAN_MOTION_DOT": 0.00034452,
    "MEAN_MOTION_DDOT": 0.0,
    "TLE_LINE1": "1 63979U 25099AD  25315.18351833  .00034452  00000+0  12553-2 0  9992",
    "TLE_LINE2": "2 63979  42.9937 121.8958 0001716  70.9961 289.1077 15.27587549 29166",
    "COMMENT": "Grouped by shell and plane from TLE"
  },
  {
    "OBJECT_NAME": "STARLINK-34379",
    "OBJECT_ID": "25123M",
    "EPOCH": "2025-11-11T05:12:25.543584",
    "MEAN_MOTION": 15.42737071,
    "ECCENTRICITY": 0.0002394,
    "INCLINATION": 69.999,
    "RA_OF_ASC_NODE": 124.6981,
    "ARG_OF_PERICENTER": 278.6209,
    "MEAN_ANOMALY": 81.4702,
    "EPHEMERIS_TYPE": 0,
    "CLASSIFICATION_TYPE": "U",
    "NORAD_CAT_ID": 64302,
    "ELEMENT_SET_NO": 999,
    "REV_AT_EPOCH": 2408,
    "BSTAR": 0.0017442,
    "MEAN_MOTION_DOT": 0.00077057,
    "MEAN_MOTION_DDOT": 0.0,
    "TLE_LINE1": "1 64302U 25123M   25315.21696231  .00077057  00000+0  17442-2 0  9999",
    "TLE_LINE2": "2 64302  69.9990 124.6981 0002394 278.6209  81.4702 15.42737071 24085",
    "COMMENT": "Grouped by shell and plane from TLE"
  },
  {
    "OBJECT_NAME": "STARLINK-34299",
    "OBJECT_ID": "25127P",
    "EPOCH": "2025-11-11T05:11:00.735072",
    "MEAN_MOTION": 15.27604943,
    "ECCENTRICITY": 0.0001973,
    "INCLINATION": 43.0018,
    "RA_OF_ASC_NODE": 129.2428,
    "ARG_OF_PERICENTER": 286.8644,
    "MEAN_ANOMALY": 73.1991,
    "EPHEMERIS_TYPE": 0,
    "CLASSIFICATION_TYPE": "U",
    "NORAD_CAT_ID": 64383,
    "ELEMENT_SET_NO": 999,
    "REV_AT_EPOCH": 2429,
    "BSTAR": 0.0012661,
    "MEAN_MOTION_DOT": 0.00034769,
    "MEAN_MOTION_DDOT": 0.0,
    "TLE_LINE1": "1 64383U 25127P   25315.21598073  .00034769  00000+0  12661-2 0  9998",
    "TLE_LINE2": "2 64383  43.0018 129.2428 0001973 286.8644  73.1991 15.27604943 24296",
    "COMMENT": "Grouped by shell and plane from TLE"
  },
  {
    "OBJECT_NAME": "STARLINK-34271",
    "OBJECT_ID": "25127Q",
    "EPOCH": "2025-11-11T04:54:23.407776",
    "MEAN_MOTION": 15.27557147,
    "ECCENTRICITY": 0.0001338,
    "INCLINATION": 42.994,
    "RA_OF_ASC_NODE": 129.157,
    "ARG_OF_PERICENTER": 66.6178,
    "MEAN_ANOMALY": 293.4815,
    "EPHEMERIS_TYPE": 0,
    "CLASSIFICATION_TYPE": "U",
    "NORAD_CAT_ID": 64384,
    "ELEMENT_SET_NO": 999,
    "REV_AT_EPOCH": 2434,
    "BSTAR": 0.00098382,
    "MEAN_MOTION_DOT": 0.00026891,
    "MEAN_MOTION_DDOT": 0.0,
    "TLE_LINE1": "1 64384U 25127Q   25315.20443759  .00026891  00000+0  98382-3 0  9990",
    "TLE_LINE2": "2 64384  42.9940 129.1570 0001338  66.6178 293.4815 15.27557147 24348",
    "COMMENT": "Grouped by shell and plane from TLE"
  },
  {
    "OBJECT_NAME": "STARLINK-34100",
    "OBJECT_ID": "25127R",
    "EPOCH": "2025-11-11T04:59:54.793248",
    "MEAN_MOTION": 15.27586619,
    "ECCENTRICITY": 9.66e-05,
    "INCLINATION": 43.0042,
    "RA_OF_ASC_NODE": 129.187,
    "ARG_OF_PERICENTER": 308.127,
    "MEAN_ANOMALY": 51.9495,
    "EPHEMERIS_TYPE": 0,
    "CLASSIFICATION_TYPE": "U",
    "NORAD_CAT_ID": 64385,
    "ELEMENT_SET_NO": 999,
    "REV_AT_EPOCH": 2429,
    "BSTAR": 0.0013442,
    "MEAN_MOTION_DOT": 0.00036919,
    "MEAN_MOTION_DDOT": 0.0,
    "TLE_LINE1": "1 64385U 25127R   25315.20827307  .00036919  00000+0  13442-2 0  9991",
    "TLE_LINE2": "2 64385  43.0042 129.1870 0000966 308.1270  51.9495 15.27586619 24291",
    "COMMENT": "Grouped by shell and plane from TLE"
  },
  {
    "OBJECT_NAME": "STARLINK-33802",
    "OBJECT_ID": "25127Y",
    "EPOCH": "2025-11-11T05:05:28.300704",
    "MEAN_MOTION": 15.27594344,
    "ECCENTRICITY": 0.0001286,
    "INCLINATION": 43.0007,
    "RA_OF_ASC_NODE": 129.2125,
    "ARG_OF_PERICENTER": 265.8532,
    "MEAN_ANOMALY": 94.2173,
    "EPHEMERIS_TYPE": 0,
    "CLASSIFICATION_TYPE": "U",
    "NORAD_CAT_ID": 64392,
    "ELEMENT_SET_NO": 999,
    "REV_AT_EPOCH": 2439,
    "BSTAR": 0.0011458,
    "MEAN_MOTION_DOT": 0.00031417,
    "MEAN_MOTION_DDOT": 0.0,
    "TLE_LINE1": "1 64392U 25127Y   25315.21213311  .00031417  00000+0  11458-2 0  9997",
    "TLE_LINE2": "2 64392  43.0007 129.2125 0001286 265.8532  94.2173 15.27594344 24398",
    "COMMENT": "Grouped by shell and plane from TLE"
  },
  {
    "OBJECT_NAME": "STARLINK-34617",
    "OBJECT_ID": "25161A",
    "EPOCH": "2025-11-10T11:20:19.264416",
    "MEAN_MOTION": 15.3024664,
    "ECCENTRICITY": 0.0002771,
    "INCLINATION": 53.1566,
    "RA_OF_ASC_NODE": 128.2107,
    "ARG_OF_PERICENTER": 81.0161,
    "MEAN_ANOMALY": 279.1154,
    "EPHEMERIS_TYPE": 0,
    "CLASSIFICATION_TYPE": "U",
    "NORAD_CAT_ID": 65015,
    "ELEMENT_SET_NO": 999,
    "REV_AT_EPOCH": 1597,
    "BSTAR": 0.0015554000000000002,
    "MEAN_MOTION_DOT": 0.00046061,
    "MEAN_MOTION_DDOT": 0.0,
    "TLE_LINE1": "1 65015U 25161A   25314.47244519  .00046061  00000+0  15554-2 0  9991",
    "TLE_LINE2": "2 65015  53.1566 128.2107 0002771  81.0161 279.1154 15.30246640 15972",
    "COMMENT": "Grouped by shell and plane from TLE"
  },
  {
    "OBJECT_NAME": "STARLINK-34627",
    "OBJECT_ID": "25161B",
    "EPOCH": "2025-11-11T04:12:06.313248",
    "MEAN_MOTION": 15.30225906,
    "ECCENTRICITY": 0.0001702,
    "INCLINATION": 53.1583,
    "RA_OF_ASC_NODE": 124.7735,
    "ARG_OF_PERICENTER": 82.68,
    "MEAN_ANOMALY": 277.4395,
    "EPHEMERIS_TYPE": 0,
    "CLASSIFICATION_TYPE": "U",
    "NORAD_CAT_ID": 65016,
    "ELEMENT_SET_NO": 999,
    "REV_AT_EPOCH": 1729,
    "BSTAR": 0.00087469,
    "MEAN_MOTION_DOT": 0.00025657,
    "MEAN_MOTION_DDOT": 0.0,
    "TLE_LINE1": "1 65016U 25161B   25315.17507307  .00025657  00000+0  87469-3 0  9990",
    "TLE_LINE2": "2 65016  53.1583 124.7735 0001702  82.6800 277.4395 15.30225906 17297",
    "COMMENT": "Grouped by shell and plane from TLE"
  },
  {
    "OBJECT_NAME": "STARLINK-34549",
    "OBJECT_ID": "25161C",
    "EPOCH": "2025-11-11T04:51:27.232128",
    "MEAN_MOTION": 15.30221186,
    "ECCENTRICITY": 0.0002284,
    "INCLINATION": 53.1569,
    "RA_OF_ASC_NODE": 124.2273,
    "ARG_OF_PERICENTER": 94.2657,
    "MEAN_ANOMALY": 265.8605,
    "EPHEMERIS_TYPE": 0,
    "CLASSIFICATION_TYPE": "U",
    "NORAD_CAT_ID": 65017,
    "ELEMENT_SET_NO": 999,
    "REV_AT_EPOCH": 1730,
    "BSTAR": 0.0011236,
    "MEAN_MOTION_DOT": 0.00033089,
    "MEAN_MOTION_DDOT": 0.0,
    "TLE_LINE1": "1 65017U 25161C   25315.20239852  .00033089  00000+0  11236-2 0  9998",
    "TLE_LINE2": "2 65017  53.1569 124.2273 0002284  94.2657 265.8605 15.30221186 17302",
    "COMMENT": "Grouped by shell and plane from TLE"
  },
  {
    "OBJECT_NAME": "STARLINK-34623",
    "OBJECT_ID": "25161D",
    "EPOCH": "2025-11-10T20:53:43.537056",
    "MEAN_MOTION": 15.30234762,
    "ECCENTRICITY": 0.0003039,
    "INCLINATION": 53.159,
    "RA_OF_ASC_NODE": 126.4279,
    "ARG_OF_PERICENTER": 231.4485,
    "MEAN_ANOMALY": 128.6243,
    "EPHEMERIS_TYPE": 0,
    "CLASSIFICATION_TYPE": "U",
    "NORAD_CAT_ID": 65018,
    "ELEMENT_SET_NO": 999,
    "REV_AT_EPOCH": 1713,
    "BSTAR": 0.0011761,
    "MEAN_MOTION_DOT": 0.00034675,
    "MEAN_MOTION_DDOT": 0.0,
    "TLE_LINE1": "1 65018U 25161D   25314.87064279  .00034675  00000+0  11761-2 0  9995",
    "TLE_LINE2": "2 65018  53.1590 126.4279 0003039 231.4485 128.6243 15.30234762 17139",
    "COMMENT": "Grouped by shell and plane from TLE"
  }
]